<?xml version="1.0" encoding="UTF-8"?>
<kml xmlns="http://www.opengis.net/kml/2.2">
  <Document>
    <name>Taman Monas</name>
    <Style id="poly-000000-1200-77-nodesc-normal">
      <LineStyle>
        <color>ff000000</color>
        <width>1.2</width>
      </LineStyle>
      <PolyStyle>
        <color>4d000000</color>
        <fill>1</fill>
        <outline>1</outline>
      </PolyStyle>
      <BalloonStyle>
        <text><![CDATA[<h3>$[name]</h3>]]></text>
      </BalloonStyle>
    </Style>
    <Style id="poly-000000-1200-77-nodesc-highlight">
      <LineStyle>
        <color>ff000000</color>
        <width>1.8</width>
      </LineStyle>
      <PolyStyle>
        <color>4d000000</color>
        <fill>1</fill>
        <outline>1</outline>
      </PolyStyle>
      <BalloonStyle>
        <text><![CDATA[<h3>$[name]</h3>]]></text>
      </BalloonStyle>
    </Style>
    <StyleMap id="poly-000000-1200-77-nodesc">
      <Pair>
        <key>normal</key>
        <styleUrl>#poly-000000-1200-77-nodesc-normal</styleUrl>
      </Pair>
      <Pair>
        <key>highlight</key>
        <styleUrl>#poly-000000-1200-77-nodesc-highlight</styleUrl>
      </Pair>
    </StyleMap>
    <Placemark>
      <name>Monas</name>
      <styleUrl>#poly-000000-1200-77-nodesc</styleUrl>
      <Polygon>
        <outerBoundaryIs>
          <LinearRing>
            <tessellate>1</tessellate>
            <coordinates>
              106.8232956,-6.171741,0
              106.8230897,-6.1799112,0
              106.8238275,-6.1803888,0
              106.8309645,-6.1800988,0
              106.8310846,-6.179536,0
              106.8303469,-6.1788196,0
              106.8307414,-6.1785808,0
              106.8298836,-6.1778133,0
              106.8297978,-6.1734297,0
              106.8291802,-6.1729009,0
              106.8291802,-6.1718604,0
              106.8289229,-6.1715875,0
              106.8236387,-6.1715193,0
              106.8232956,-6.171741,0
            </coordinates>
          </LinearRing>
        </outerBoundaryIs>
      </Polygon>
    </Placemark>
    <Placemark>
      <name>Gelora Bung Karno</name>
      <styleUrl>#poly-000000-1200-77-nodesc</styleUrl>
      <Polygon>
        <outerBoundaryIs>
          <LinearRing>
            <tessellate>1</tessellate>
            <coordinates>
              106.7988125,-6.2162883,0
              106.7987445,-6.2164482,0
              106.7987016,-6.2179699,0
              106.7988304,-6.2181903,0
              106.7987803,-6.2192356,0
              106.7990235,-6.2197404,0
              106.798952,-6.2208283,0
              106.8013373,-6.2218771,0
              106.8028823,-6.2224815,0
              106.8037406,-6.2234983,0
              106.8047634,-6.2247639,0
              106.8087832,-6.2220406,0
              106.8083325,-6.2211874,0
              106.8069092,-6.2211163,0
              106.806902,-6.2156092,0
              106.806244,-6.215531,0
              106.8061582,-6.2128219,0
              106.8043951,-6.2131561,0
              106.8007365,-6.2140982,0
              106.7978898,-6.2147808,0
              106.7979327,-6.2155843,0
              106.7963306,-6.215627,0
              106.7962304,-6.2161532,0
              106.7988125,-6.2162883,0
            </coordinates>
          </LinearRing>
        </outerBoundaryIs>
      </Polygon>
    </Placemark>
    <Placemark>
      <name>Tebet Echo Park.</name>
      <styleUrl>#poly-000000-1200-77-nodesc</styleUrl>
      <Polygon>
        <outerBoundaryIs>
          <LinearRing>
            <tessellate>1</tessellate>
            <coordinates>
              106.8508633,-6.2327094,0
              106.8507044,-6.2333004,0
              106.8507044,-6.2341536,0
              106.8510858,-6.2346118,0
              106.852421,-6.235484,0
              106.8526753,-6.236037,0
              106.8517057,-6.2399555,0
              106.852723,-6.242136,0
              106.8539151,-6.2419306,0
              106.8530409,-6.240488,0
              106.8529932,-6.2394563,0
              106.8537243,-6.2366596,0
              106.8532316,-6.2347003,0
              106.852866,-6.2347793,0
              106.852564,-6.2334047,0
              106.8521984,-6.2334363,0
              106.8513083,-6.2334837,0
              106.8514037,-6.233057,0
              106.8508633,-6.2327094,0
            </coordinates>
          </LinearRing>
        </outerBoundaryIs>
      </Polygon>
    </Placemark>
    <Placemark>
      <name>Taman Mini Indonesia Indah
</name>
      <styleUrl>#poly-000000-1200-77-nodesc</styleUrl>
      <Polygon>
        <outerBoundaryIs>
          <LinearRing>
            <tessellate>1</tessellate>
            <coordinates>
              106.889482,-6.3040086,0
              106.8894661,-6.3049328,0
              106.889637,-6.3049328,0
              106.8902609,-6.3049368,0
              106.8904317,-6.3048657,0
              106.8906384,-6.3044904,0
              106.890547,-6.304135,0
              106.8903324,-6.3039928,0
              106.8897045,-6.303973,0
              106.8896171,-6.3040836,0
              106.889482,-6.3040086,0
            </coordinates>
          </LinearRing>
        </outerBoundaryIs>
      </Polygon>
    </Placemark>
  </Document>
</kml>
